0 CZ-4 DEB
1 20969U 90081CB  13281.87781372  .00001198  00000-0  47846-3 0  9072
2 20969 098.6028 302.7341 0051802 106.0639 016.2770 14.29531665192111
0 CZ-4 DEB
1 20969U 90081CB  13284.03415175  .00001408  00000-0  55932-3 0  9088
2 20969 098.6024 304.8639 0051783 099.8573 313.3719 14.29539971192420
0 CZ-4 DEB
1 20969U 90081CB  13286.06536802  .00001278  00000-0  50914-3 0  9095
2 20969 098.6018 306.8699 0051688 094.0302 326.5862 14.29545520192716
0 CZ-4 DEB
1 20969U 90081CB  13288.30573185  .00001988  00000-0  78293-3 0  9109
2 20969 098.6014 309.0823 0051588 087.5879 336.1984 14.29553686193031
0 CZ-4 DEB
1 20969U 90081CB  13290.62608992  .00001647  00000-0  65141-3 0  9113
2 20969 098.6012 311.3735 0051485 080.9009 037.5718 14.29562404193366
0 CZ-4 DEB
1 20969U 90081CB  13292.65958704  .00001754  00000-0  69249-3 0  9120
2 20969 098.6013 313.3813 0051405 075.0152 062.7434 14.29567660193658
0 CZ-4 DEB
1 20969U 90081CB  13294.68501229  .00001858  00000-0  73258-3 0  9132
2 20969 098.6012 315.3812 0051259 069.1335 046.4357 14.29575160193941
